[{"id":1,"Pincode":"46-020","State":null,"Address":"62 Coleman Lane"},
{"id":2,"Pincode":null,"State":null,"Address":"17 Coolidge Drive"},
{"id":3,"Pincode":"446 38","State":"Västra Götaland","Address":"22 Drewry Alley"},
{"id":4,"Pincode":null,"State":null,"Address":"19582 East Terrace"},
{"id":5,"Pincode":null,"State":null,"Address":"42 Welch Hill"},
{"id":6,"Pincode":"95700-000","State":null,"Address":"6 Derek Point"},
{"id":7,"Pincode":"3310","State":null,"Address":"6026 Columbus Park"},
{"id":8,"Pincode":"31150","State":null,"Address":"95751 Meadow Ridge Parkway"},
{"id":9,"Pincode":null,"State":null,"Address":"50817 International Road"},
{"id":10,"Pincode":null,"State":null,"Address":"91358 Anzinger Circle"},
{"id":11,"Pincode":"262 34","State":"Skåne","Address":"6640 Division Point"},
{"id":12,"Pincode":"5839","State":"South Australia","Address":"240 Hermina Point"},
{"id":13,"Pincode":null,"State":null,"Address":"98 Sachs Avenue"},
{"id":14,"Pincode":null,"State":null,"Address":"89303 Ludington Road"},
{"id":15,"Pincode":"2304","State":null,"Address":"13900 Kedzie Court"},
{"id":16,"Pincode":"29160-000","State":null,"Address":"6 Loftsgordon Trail"},
{"id":17,"Pincode":null,"State":null,"Address":"9 Alpine Court"},
{"id":18,"Pincode":null,"State":null,"Address":"59 Derek Circle"},
{"id":19,"Pincode":null,"State":null,"Address":"16531 Heffernan Avenue"},
{"id":20,"Pincode":"267 63","State":null,"Address":"2 Hovde Court"},
{"id":21,"Pincode":null,"State":null,"Address":"793 Loftsgordon Place"},
{"id":22,"Pincode":null,"State":null,"Address":"9 Fuller Park"},
{"id":23,"Pincode":"2231","State":null,"Address":"978 International Way"},
{"id":24,"Pincode":null,"State":null,"Address":"3626 Clove Trail"},
{"id":25,"Pincode":null,"State":null,"Address":"49 Bartelt Alley"},
{"id":26,"Pincode":"9505","State":null,"Address":"37 Myrtle Place"},
{"id":27,"Pincode":null,"State":null,"Address":"1584 Clemons Circle"},
{"id":28,"Pincode":"8950-355","State":"Faro","Address":"194 Sundown Point"},
{"id":29,"Pincode":null,"State":null,"Address":"1 Springs Plaza"},
{"id":30,"Pincode":null,"State":null,"Address":"3640 Schiller Lane"},
{"id":31,"Pincode":"55590-000","State":null,"Address":"49 Golf Course Junction"},
{"id":32,"Pincode":null,"State":null,"Address":"852 Thompson Crossing"},
{"id":33,"Pincode":"538 62","State":null,"Address":"4 Westport Crossing"},
{"id":34,"Pincode":null,"State":null,"Address":"66 Summit Terrace"},
{"id":35,"Pincode":null,"State":null,"Address":"2405 Bartillon Hill"},
{"id":36,"Pincode":null,"State":null,"Address":"48 Sachtjen Lane"},
{"id":37,"Pincode":null,"State":null,"Address":"6 Elmside Way"},
{"id":38,"Pincode":null,"State":null,"Address":"7023 Northport Road"},
{"id":39,"Pincode":null,"State":null,"Address":"506 Gulseth Hill"},
{"id":40,"Pincode":"27-220","State":null,"Address":"1 Fuller Way"},
{"id":41,"Pincode":null,"State":null,"Address":"9 Reindahl Circle"},
{"id":42,"Pincode":"69441 CEDEX 03","State":"Rhône-Alpes","Address":"66 Loomis Lane"},
{"id":43,"Pincode":null,"State":null,"Address":"34 Mayer Center"},
{"id":44,"Pincode":null,"State":null,"Address":"6002 Bartillon Parkway"},
{"id":45,"Pincode":"4624","State":null,"Address":"42 Elka Street"},
{"id":46,"Pincode":null,"State":null,"Address":"322 Debra Point"},
{"id":47,"Pincode":"37251","State":null,"Address":"284 Clarendon Road"},
{"id":48,"Pincode":"442965","State":null,"Address":"60513 Homewood Alley"},
{"id":49,"Pincode":null,"State":null,"Address":"052 Parkside Pass"},
{"id":50,"Pincode":"13853 CEDEX 3","State":"Provence-Alpes-Côte d'Azur","Address":"71420 Nobel Alley"},
{"id":51,"Pincode":"122 32","State":"Stockholm","Address":"8 Bunting Road"},
{"id":52,"Pincode":"60505","State":"Illinois","Address":"4699 Hoffman Place"},
{"id":53,"Pincode":"4001","State":null,"Address":"5 Coolidge Pass"},
{"id":54,"Pincode":null,"State":null,"Address":"425 Raven Parkway"},
{"id":55,"Pincode":null,"State":null,"Address":"074 Quincy Point"},
{"id":56,"Pincode":"10130","State":null,"Address":"73172 Bultman Hill"},
{"id":57,"Pincode":"787-0150","State":null,"Address":"587 Pierstorff Drive"},
{"id":58,"Pincode":"G6W","State":"Québec","Address":"3364 Shoshone Trail"},
{"id":59,"Pincode":null,"State":null,"Address":"14076 Maple Wood Court"},
{"id":60,"Pincode":null,"State":null,"Address":"5846 Northland Center"},
{"id":61,"Pincode":null,"State":null,"Address":"98259 Harper Lane"},
{"id":62,"Pincode":null,"State":null,"Address":"3723 Ramsey Avenue"},
{"id":63,"Pincode":null,"State":null,"Address":"84 Burrows Hill"},
{"id":64,"Pincode":"471 31","State":"Västra Götaland","Address":"34 Sommers Place"},
{"id":65,"Pincode":null,"State":null,"Address":"796 Coleman Plaza"},
{"id":66,"Pincode":"601120","State":null,"Address":"5 Cottonwood Avenue"},
{"id":67,"Pincode":null,"State":null,"Address":"01 Roxbury Court"},
{"id":68,"Pincode":null,"State":null,"Address":"27942 Kim Way"},
{"id":69,"Pincode":"2425-724","State":"Leiria","Address":"0 Annamark Place"},
{"id":70,"Pincode":"152219","State":null,"Address":"0 David Center"},
{"id":71,"Pincode":"78804 CEDEX","State":"Île-de-France","Address":"7504 6th Street"},
{"id":72,"Pincode":null,"State":null,"Address":"619 Dahle Trail"},
{"id":73,"Pincode":"J5J","State":"Québec","Address":"72 Morrow Junction"},
{"id":74,"Pincode":null,"State":null,"Address":"7552 Warner Street"},
{"id":75,"Pincode":null,"State":null,"Address":"55568 Vidon Point"},
{"id":76,"Pincode":null,"State":null,"Address":"37502 Dorton Avenue"},
{"id":77,"Pincode":"771 50","State":"Dalarna","Address":"3 Quincy Drive"},
{"id":78,"Pincode":null,"State":null,"Address":"05861 Tennessee Crossing"},
{"id":79,"Pincode":null,"State":null,"Address":"2701 Service Trail"},
{"id":80,"Pincode":null,"State":null,"Address":"3 Mockingbird Circle"},
{"id":81,"Pincode":null,"State":null,"Address":"75 Village Point"},
{"id":82,"Pincode":"3361","State":null,"Address":"9 High Crossing Junction"},
{"id":83,"Pincode":null,"State":null,"Address":"3 Bay Pass"},
{"id":84,"Pincode":null,"State":null,"Address":"573 Maywood Road"},
{"id":85,"Pincode":null,"State":null,"Address":"22870 Dunning Point"},
{"id":86,"Pincode":"864-0166","State":null,"Address":"66558 Carioca Pass"},
{"id":87,"Pincode":"55417","State":"Minnesota","Address":"013 Onsgard Pass"},
{"id":88,"Pincode":null,"State":null,"Address":"92 Fairview Pass"},
{"id":89,"Pincode":"01010","State":"Pais Vasco","Address":"7 Coolidge Way"},
{"id":90,"Pincode":null,"State":null,"Address":"0 Spohn Lane"},
{"id":91,"Pincode":"472 01","State":null,"Address":"681 Hollow Ridge Place"},
{"id":92,"Pincode":"273 30","State":"Skåne","Address":"2746 Corben Plaza"},
{"id":93,"Pincode":null,"State":null,"Address":"304 Kipling Circle"},
{"id":94,"Pincode":null,"State":null,"Address":"168 Mallory Drive"},
{"id":95,"Pincode":null,"State":null,"Address":"07 Florence Avenue"},
{"id":96,"Pincode":"4234","State":null,"Address":"406 Bowman Trail"},
{"id":97,"Pincode":null,"State":null,"Address":"7205 Thierer Junction"},
{"id":98,"Pincode":"5122","State":null,"Address":"3905 Merrick Center"},
{"id":99,"Pincode":"18690-000","State":null,"Address":"970 Melby Point"},
{"id":100,"Pincode":null,"State":null,"Address":"96742 Holy Cross Road"},
{"id":101,"Pincode":"356235","State":null,"Address":"46 Harper Crossing"},
{"id":102,"Pincode":null,"State":null,"Address":"8 Randy Hill"},
{"id":103,"Pincode":null,"State":null,"Address":"37152 Canary Crossing"},
{"id":104,"Pincode":null,"State":null,"Address":"73 Laurel Alley"},
{"id":105,"Pincode":"3317","State":null,"Address":"2845 Mayer Crossing"},
{"id":106,"Pincode":"E45","State":null,"Address":"13380 Clemons Parkway"},
{"id":107,"Pincode":"91821 CEDEX","State":"Île-de-France","Address":"61647 Meadow Ridge Circle"},
{"id":108,"Pincode":"41220","State":null,"Address":"8 Buell Crossing"},
{"id":109,"Pincode":"87-640","State":null,"Address":"60 Fuller Hill"},
{"id":110,"Pincode":null,"State":null,"Address":"907 Granby Road"},
{"id":111,"Pincode":null,"State":null,"Address":"29694 Mayer Point"},
{"id":112,"Pincode":"15604","State":"Kelantan","Address":"92434 Menomonie Street"},
{"id":113,"Pincode":"3109","State":null,"Address":"12462 Glendale Way"},
{"id":114,"Pincode":"59463 CEDEX","State":"Nord-Pas-de-Calais","Address":"7831 Burrows Plaza"},
{"id":115,"Pincode":null,"State":null,"Address":"56 Forster Court"},
{"id":116,"Pincode":"4950-221","State":"Viana do Castelo","Address":"92 Washington Way"},
{"id":117,"Pincode":"4425-005","State":"Porto","Address":"46640 Wayridge Center"},
{"id":118,"Pincode":"11509","State":null,"Address":"34 Larry Drive"},
{"id":119,"Pincode":null,"State":null,"Address":"1872 Banding Trail"},
{"id":120,"Pincode":"45860-000","State":null,"Address":"7676 Knutson Road"},
{"id":121,"Pincode":"53205","State":"Wisconsin","Address":"496 Stone Corner Place"},
{"id":122,"Pincode":null,"State":null,"Address":"2718 Northwestern Drive"},
{"id":123,"Pincode":null,"State":null,"Address":"7 Corscot Center"},
{"id":124,"Pincode":null,"State":null,"Address":"614 Bunker Hill Junction"},
{"id":125,"Pincode":"59604 CEDEX","State":"Nord-Pas-de-Calais","Address":"9438 Glacier Hill Parkway"},
{"id":126,"Pincode":"95108","State":"California","Address":"194 Cambridge Center"},
{"id":127,"Pincode":"8400-305","State":"Faro","Address":"65940 Granby Circle"},
{"id":128,"Pincode":"188961","State":null,"Address":"3 Coleman Hill"},
{"id":129,"Pincode":null,"State":null,"Address":"190 Ramsey Park"},
{"id":130,"Pincode":"96850","State":"Hawaii","Address":"4869 Carey Alley"},
{"id":131,"Pincode":"11-042","State":null,"Address":"683 Tennyson Drive"},
{"id":132,"Pincode":"32-503","State":null,"Address":"8 Dwight Point"},
{"id":133,"Pincode":"665229","State":null,"Address":"233 Londonderry Place"},
{"id":134,"Pincode":"48-250","State":null,"Address":"4725 Walton Junction"},
{"id":135,"Pincode":null,"State":null,"Address":"3 Old Shore Circle"},
{"id":136,"Pincode":null,"State":null,"Address":"49 Hayes Drive"},
{"id":137,"Pincode":"2622","State":null,"Address":"876 Morrow Park"},
{"id":138,"Pincode":"986-0705","State":null,"Address":"607 Ridgeway Pass"},
{"id":139,"Pincode":null,"State":null,"Address":"4106 Monterey Point"},
{"id":140,"Pincode":null,"State":null,"Address":"4986 Kensington Alley"},
{"id":141,"Pincode":"2614","State":"Provincie Zuid-Holland","Address":"20108 Schiller Place"},
{"id":142,"Pincode":null,"State":null,"Address":"0 Caliangt Lane"},
{"id":143,"Pincode":null,"State":null,"Address":"621 Brown Center"},
{"id":144,"Pincode":null,"State":null,"Address":"7 Rigney Circle"},
{"id":145,"Pincode":null,"State":null,"Address":"8164 Crownhardt Circle"},
{"id":146,"Pincode":"666 01","State":null,"Address":"179 Nelson Junction"},
{"id":147,"Pincode":null,"State":null,"Address":"0 Surrey Crossing"},
{"id":148,"Pincode":"4332","State":null,"Address":"390 Little Fleur Lane"},
{"id":149,"Pincode":null,"State":null,"Address":"629 Sommers Terrace"},
{"id":150,"Pincode":"1411","State":null,"Address":"7 Thompson Alley"},
{"id":151,"Pincode":null,"State":null,"Address":"84 West Way"},
{"id":152,"Pincode":null,"State":null,"Address":"9 Muir Junction"},
{"id":153,"Pincode":"69400-000","State":null,"Address":"81 Pond Trail"},
{"id":154,"Pincode":"623650","State":null,"Address":"67 Reindahl Crossing"},
{"id":155,"Pincode":null,"State":null,"Address":"719 Shoshone Point"},
{"id":156,"Pincode":null,"State":null,"Address":"970 Sycamore Junction"},
{"id":157,"Pincode":"433601","State":null,"Address":"7873 La Follette Park"},
{"id":158,"Pincode":"436 54","State":"Västra Götaland","Address":"32655 Southridge Road"},
{"id":159,"Pincode":"162810","State":null,"Address":"7 Cambridge Drive"},
{"id":160,"Pincode":null,"State":null,"Address":"7 Welch Alley"},
{"id":161,"Pincode":null,"State":null,"Address":"67 Vernon Plaza"},
{"id":162,"Pincode":null,"State":null,"Address":"60258 Blackbird Plaza"},
{"id":163,"Pincode":"668510","State":null,"Address":"87179 Dunning Alley"},
{"id":164,"Pincode":"5101","State":null,"Address":"84549 Bartelt Park"},
{"id":165,"Pincode":"394 68","State":null,"Address":"5 Northridge Circle"},
{"id":166,"Pincode":"42-680","State":null,"Address":"46 Blaine Pass"},
{"id":167,"Pincode":"95335-000","State":null,"Address":"92369 Evergreen Drive"},
{"id":168,"Pincode":"205018","State":null,"Address":"7 Jay Plaza"},
{"id":169,"Pincode":null,"State":null,"Address":"18 Cherokee Drive"},
{"id":170,"Pincode":null,"State":null,"Address":"21 Lindbergh Parkway"},
{"id":171,"Pincode":"263 01","State":null,"Address":"18 Lindbergh Pass"},
{"id":172,"Pincode":"0113","State":"Oslo","Address":"852 Caliangt Lane"},
{"id":173,"Pincode":null,"State":null,"Address":"2668 Glacier Hill Pass"},
{"id":174,"Pincode":"270009","State":null,"Address":"8257 Nancy Parkway"},
{"id":175,"Pincode":"249111","State":null,"Address":"0956 Dayton Circle"},
{"id":176,"Pincode":null,"State":null,"Address":"5687 Eastlawn Lane"},
{"id":177,"Pincode":"613645","State":null,"Address":"97 Fallview Park"},
{"id":178,"Pincode":"5210-105","State":"Bragança","Address":"8201 Buhler Center"},
{"id":179,"Pincode":"51086 CEDEX","State":"Champagne-Ardenne","Address":"5098 Dovetail Plaza"},
{"id":180,"Pincode":null,"State":null,"Address":"9107 Monica Pass"},
{"id":181,"Pincode":"131 05","State":"Stockholm","Address":"6 North Street"},
{"id":182,"Pincode":null,"State":null,"Address":"34 Heffernan Crossing"},
{"id":183,"Pincode":"422343","State":null,"Address":"40269 5th Way"},
{"id":184,"Pincode":null,"State":null,"Address":"9622 Heath Place"},
{"id":185,"Pincode":null,"State":null,"Address":"8 Northport Pass"},
{"id":186,"Pincode":null,"State":null,"Address":"76 Sommers Center"},
{"id":187,"Pincode":"8333","State":null,"Address":"21324 Westend Park"},
{"id":188,"Pincode":"2436","State":null,"Address":"1 Mockingbird Way"},
{"id":189,"Pincode":"7209","State":null,"Address":"031 Haas Trail"},
{"id":190,"Pincode":"V5Y","State":"Québec","Address":"31 Milwaukee Parkway"},
{"id":191,"Pincode":"1750","State":null,"Address":"67 Randy Hill"},
{"id":192,"Pincode":null,"State":null,"Address":"1040 Oakridge Court"},
{"id":193,"Pincode":null,"State":null,"Address":"7 Kinsman Junction"},
{"id":194,"Pincode":null,"State":null,"Address":"300 American Ash Court"},
{"id":195,"Pincode":null,"State":null,"Address":"53275 Corry Hill"},
{"id":196,"Pincode":"3604","State":null,"Address":"82 Talisman Trail"},
{"id":197,"Pincode":null,"State":null,"Address":"93 Ridgeview Junction"},
{"id":198,"Pincode":"30629","State":"Niedersachsen","Address":"453 Kennedy Park"},
{"id":199,"Pincode":"5385","State":null,"Address":"1 Emmet Terrace"},
{"id":200,"Pincode":null,"State":null,"Address":"6 Oneill Terrace"},
{"id":201,"Pincode":"E45","State":null,"Address":"0 Pine View Point"},
{"id":202,"Pincode":null,"State":null,"Address":"65 Porter Trail"},
{"id":203,"Pincode":null,"State":null,"Address":"4768 Buena Vista Alley"},
{"id":204,"Pincode":null,"State":null,"Address":"55881 Buell Alley"},
{"id":205,"Pincode":null,"State":null,"Address":"196 Basil Lane"},
{"id":206,"Pincode":"L-5341","State":null,"Address":"71 Manitowish Circle"},
{"id":207,"Pincode":"617724","State":null,"Address":"44 Manley Way"},
{"id":208,"Pincode":"86430-000","State":null,"Address":"904 David Alley"},
{"id":209,"Pincode":null,"State":null,"Address":"019 Victoria Parkway"},
{"id":210,"Pincode":"88870-000","State":null,"Address":"65106 Loftsgordon Court"},
{"id":211,"Pincode":null,"State":null,"Address":"2395 Fairview Center"},
{"id":212,"Pincode":null,"State":null,"Address":"06722 Reindahl Way"},
{"id":213,"Pincode":null,"State":null,"Address":"44187 Porter Avenue"},
{"id":214,"Pincode":"99-423","State":null,"Address":"3 Onsgard Hill"},
{"id":215,"Pincode":"443049","State":null,"Address":"1 Oakridge Circle"},
{"id":216,"Pincode":"23459","State":"Virginia","Address":"3379 Sommers Road"},
{"id":217,"Pincode":"3807","State":null,"Address":"8 Scott Place"},
{"id":218,"Pincode":null,"State":null,"Address":"2088 Grover Court"},
{"id":219,"Pincode":null,"State":null,"Address":"1 Mosinee Avenue"},
{"id":220,"Pincode":"346763","State":null,"Address":"96910 Westerfield Parkway"},
{"id":221,"Pincode":"89130-000","State":null,"Address":"3 Mendota Street"},
{"id":222,"Pincode":"2495-555","State":"Santarém","Address":"364 Bartelt Terrace"},
{"id":223,"Pincode":null,"State":null,"Address":"597 Tennessee Drive"},
{"id":224,"Pincode":null,"State":null,"Address":"62383 Leroy Drive"},
{"id":225,"Pincode":"8113","State":null,"Address":"95 Arrowood Alley"},
{"id":226,"Pincode":null,"State":null,"Address":"329 Dayton Crossing"},
{"id":227,"Pincode":null,"State":null,"Address":"569 Myrtle Avenue"},
{"id":228,"Pincode":null,"State":null,"Address":"3 Thompson Junction"},
{"id":229,"Pincode":null,"State":null,"Address":"18 Sheridan Hill"},
{"id":230,"Pincode":"3606","State":null,"Address":"3 Corry Terrace"},
{"id":231,"Pincode":"188414","State":null,"Address":"84 John Wall Lane"},
{"id":232,"Pincode":null,"State":null,"Address":"02 Bonner Drive"},
{"id":233,"Pincode":"3780-115","State":"Aveiro","Address":"005 Pearson Terrace"},
{"id":234,"Pincode":null,"State":null,"Address":"475 Forest Run Road"},
{"id":235,"Pincode":null,"State":null,"Address":"1 Comanche Park"},
{"id":236,"Pincode":"8650-104","State":"Faro","Address":"4 Pankratz Street"},
{"id":237,"Pincode":"14000","State":null,"Address":"93 Utah Way"},
{"id":238,"Pincode":"358006","State":null,"Address":"403 Forest Dale Plaza"},
{"id":239,"Pincode":"L8P","State":"Québec","Address":"0015 Sunnyside Circle"},
{"id":240,"Pincode":"85614 CEDEX","State":"Pays de la Loire","Address":"05 Grayhawk Place"},
{"id":241,"Pincode":"2390","State":null,"Address":"06 Spaight Place"},
{"id":242,"Pincode":null,"State":null,"Address":"7 Butterfield Alley"},
{"id":243,"Pincode":"407 44","State":null,"Address":"7338 Shasta Terrace"},
{"id":244,"Pincode":null,"State":null,"Address":"103 Karstens Hill"},
{"id":245,"Pincode":"293 93","State":"Blekinge","Address":"75 Oxford Hill"},
{"id":246,"Pincode":"798 47","State":null,"Address":"3 Nova Drive"},
{"id":247,"Pincode":"141032","State":null,"Address":"046 Glendale Alley"},
{"id":248,"Pincode":null,"State":null,"Address":"7891 Manitowish Center"},
{"id":249,"Pincode":null,"State":null,"Address":"3154 Judy Street"},
{"id":250,"Pincode":"357247","State":null,"Address":"25515 Kennedy Place"},
{"id":251,"Pincode":"2970-079","State":"Setúbal","Address":"6539 Basil Point"},
{"id":252,"Pincode":null,"State":null,"Address":"07 Autumn Leaf Court"},
{"id":253,"Pincode":"572 60","State":"Kalmar","Address":"4266 Sachs Trail"},
{"id":254,"Pincode":"70000-000","State":null,"Address":"8855 Pawling Park"},
{"id":255,"Pincode":null,"State":null,"Address":"9304 Warbler Pass"},
{"id":256,"Pincode":null,"State":null,"Address":"72 Spaight Hill"},
{"id":257,"Pincode":"48130","State":null,"Address":"168 Goodland Circle"},
{"id":258,"Pincode":null,"State":null,"Address":"5 Kings Street"},
{"id":259,"Pincode":"D18","State":null,"Address":"81578 1st Road"},
{"id":260,"Pincode":null,"State":null,"Address":"9880 Hagan Plaza"},
{"id":261,"Pincode":"L-5445","State":null,"Address":"8 Shoshone Drive"},
{"id":262,"Pincode":"14910-000","State":null,"Address":"1087 Spenser Plaza"},
{"id":263,"Pincode":null,"State":null,"Address":"92045 Weeping Birch Center"},
{"id":264,"Pincode":null,"State":null,"Address":"64323 Hayes Park"},
{"id":265,"Pincode":"80891 CEDEX 3","State":"Picardie","Address":"8793 Warrior Hill"},
{"id":266,"Pincode":"525069","State":null,"Address":"20 Fallview Avenue"},
{"id":267,"Pincode":null,"State":null,"Address":"2933 Haas Drive"},
{"id":268,"Pincode":null,"State":null,"Address":"12 Clyde Gallagher Lane"},
{"id":269,"Pincode":null,"State":null,"Address":"8 Alpine Court"},
{"id":270,"Pincode":null,"State":null,"Address":"4 Mallard Center"},
{"id":271,"Pincode":null,"State":null,"Address":"86068 Hanover Avenue"},
{"id":272,"Pincode":null,"State":null,"Address":"29 Elmside Parkway"},
{"id":273,"Pincode":"J8R","State":"Saskatchewan","Address":"602 Pankratz Crossing"},
{"id":274,"Pincode":null,"State":null,"Address":"42054 Derek Drive"},
{"id":275,"Pincode":"29094","State":"Chiapas","Address":"856 Sunbrook Plaza"},
{"id":276,"Pincode":null,"State":null,"Address":"07 Portage Alley"},
{"id":277,"Pincode":null,"State":null,"Address":"61061 Texas Circle"},
{"id":278,"Pincode":null,"State":null,"Address":"3 Hoffman Trail"},
{"id":279,"Pincode":null,"State":null,"Address":"9 Prentice Pass"},
{"id":280,"Pincode":null,"State":null,"Address":"17901 Lakeland Place"},
{"id":281,"Pincode":"2360","State":null,"Address":"0 Mosinee Drive"},
{"id":282,"Pincode":null,"State":null,"Address":"3 Alpine Point"},
{"id":283,"Pincode":"97-216","State":null,"Address":"7 Armistice Drive"},
{"id":284,"Pincode":"4905","State":null,"Address":"819 Ridge Oak Point"},
{"id":285,"Pincode":"457229","State":null,"Address":"197 Banding Hill"},
{"id":286,"Pincode":null,"State":null,"Address":"030 Bunker Hill Plaza"},
{"id":287,"Pincode":null,"State":null,"Address":"181 American Ash Place"},
{"id":288,"Pincode":null,"State":null,"Address":"53 Dennis Crossing"},
{"id":289,"Pincode":null,"State":null,"Address":"42 Heath Lane"},
{"id":290,"Pincode":null,"State":null,"Address":"40689 Hooker Drive"},
{"id":291,"Pincode":"16801","State":null,"Address":"28966 Mitchell Pass"},
{"id":292,"Pincode":"46-040","State":null,"Address":"369 Shoshone Crossing"},
{"id":293,"Pincode":"38430-000","State":null,"Address":"4 Kingsford Hill"},
{"id":294,"Pincode":null,"State":null,"Address":"29111 Bluestem Parkway"},
{"id":295,"Pincode":"50700","State":null,"Address":"8 Claremont Trail"},
{"id":296,"Pincode":null,"State":null,"Address":"045 Kim Trail"},
{"id":297,"Pincode":null,"State":null,"Address":"56 Center Terrace"},
{"id":298,"Pincode":"45580-000","State":null,"Address":"709 Michigan Crossing"},
{"id":299,"Pincode":null,"State":null,"Address":"9 Nelson Alley"},
{"id":300,"Pincode":null,"State":null,"Address":"580 Hermina Court"},
{"id":301,"Pincode":null,"State":null,"Address":"52 Browning Pass"},
{"id":302,"Pincode":null,"State":null,"Address":"607 Lawn Place"},
{"id":303,"Pincode":null,"State":null,"Address":"145 Macpherson Lane"},
{"id":304,"Pincode":null,"State":null,"Address":"98562 Sunbrook Court"},
{"id":305,"Pincode":null,"State":null,"Address":"410 Jay Street"},
{"id":306,"Pincode":"75379","State":"Texas","Address":"62 Mayer Terrace"},
{"id":307,"Pincode":null,"State":null,"Address":"8 Badeau Point"},
{"id":308,"Pincode":null,"State":null,"Address":"75 Hoard Plaza"},
{"id":309,"Pincode":null,"State":null,"Address":"47692 Chive Lane"},
{"id":310,"Pincode":null,"State":null,"Address":"267 Kings Lane"},
{"id":311,"Pincode":null,"State":null,"Address":"00 Green Hill"},
{"id":312,"Pincode":"1814","State":null,"Address":"4605 Huxley Place"},
{"id":313,"Pincode":null,"State":null,"Address":"877 Nancy Avenue"},
{"id":314,"Pincode":"254008","State":null,"Address":"27955 Kings Way"},
{"id":315,"Pincode":null,"State":null,"Address":"10240 Red Cloud Street"},
{"id":316,"Pincode":null,"State":null,"Address":"3886 Helena Avenue"},
{"id":317,"Pincode":null,"State":null,"Address":"98 Manufacturers Drive"},
{"id":318,"Pincode":null,"State":null,"Address":"3 Maywood Point"},
{"id":319,"Pincode":null,"State":null,"Address":"5 Pine View Point"},
{"id":320,"Pincode":null,"State":null,"Address":"755 Dorton Center"},
{"id":321,"Pincode":"4210","State":null,"Address":"36 Westerfield Court"},
{"id":322,"Pincode":"5213","State":null,"Address":"30549 Lawn Way"},
{"id":323,"Pincode":"J5K","State":"Québec","Address":"093 Bashford Terrace"},
{"id":324,"Pincode":"57751 CEDEX 9","State":"Lorraine","Address":"6978 Kropf Trail"},
{"id":325,"Pincode":"2202","State":null,"Address":"80596 Clove Park"},
{"id":326,"Pincode":"69446 CEDEX 03","State":"Rhône-Alpes","Address":"91977 Forest Run Alley"},
{"id":327,"Pincode":"6529","State":null,"Address":"8 Warbler Trail"},
{"id":328,"Pincode":null,"State":null,"Address":"63 Fuller Point"},
{"id":329,"Pincode":null,"State":null,"Address":"76 Village Way"},
{"id":330,"Pincode":null,"State":null,"Address":"72191 Meadow Ridge Junction"},
{"id":331,"Pincode":"79004 CEDEX","State":"Poitou-Charentes","Address":"6 Tomscot Way"},
{"id":332,"Pincode":"83553","State":"Sonora","Address":"49 Moland Center"},
{"id":333,"Pincode":"1105","State":null,"Address":"4 Pine View Center"},
{"id":334,"Pincode":"27401","State":null,"Address":"1712 Sunnyside Road"},
{"id":335,"Pincode":null,"State":null,"Address":"97 Jenifer Alley"},
{"id":336,"Pincode":null,"State":null,"Address":"3550 Everett Circle"},
{"id":337,"Pincode":"7700-015","State":"Beja","Address":"5 Tennyson Court"},
{"id":338,"Pincode":"170 77","State":"Stockholm","Address":"54643 Weeping Birch Court"},
{"id":339,"Pincode":"62870-000","State":null,"Address":"0 Dorton Road"},
{"id":340,"Pincode":null,"State":null,"Address":"4464 Darwin Lane"},
{"id":341,"Pincode":"11805","State":null,"Address":"12548 Kedzie Point"},
{"id":342,"Pincode":null,"State":null,"Address":"2145 Tony Lane"},
{"id":343,"Pincode":null,"State":null,"Address":"8713 Mockingbird Way"},
{"id":344,"Pincode":"30629","State":"Niedersachsen","Address":"58 Huxley Center"},
{"id":345,"Pincode":null,"State":null,"Address":"5 Lyons Way"},
{"id":346,"Pincode":"1656","State":null,"Address":"26 Forest Dale Trail"},
{"id":347,"Pincode":null,"State":null,"Address":"8471 Lien Avenue"},
{"id":348,"Pincode":"0390","State":null,"Address":"44 Golf Way"},
{"id":349,"Pincode":"453839","State":null,"Address":"39 Ramsey Circle"},
{"id":350,"Pincode":"756 56","State":null,"Address":"3184 Jackson Park"},
{"id":351,"Pincode":"4430","State":null,"Address":"40 Oneill Crossing"},
{"id":352,"Pincode":null,"State":null,"Address":"3773 Prairieview Lane"},
{"id":353,"Pincode":"3332","State":null,"Address":"31609 Pleasure Street"},
{"id":354,"Pincode":null,"State":null,"Address":"63091 Goodland Trail"},
{"id":355,"Pincode":"5881","State":null,"Address":"72801 Sunnyside Park"},
{"id":356,"Pincode":"157812","State":null,"Address":"1 Basil Drive"},
{"id":357,"Pincode":null,"State":null,"Address":"5 Daystar Road"},
{"id":358,"Pincode":null,"State":null,"Address":"0 Lakeland Pass"},
{"id":359,"Pincode":null,"State":null,"Address":"0 Londonderry Plaza"},
{"id":360,"Pincode":"682071","State":null,"Address":"4 Fuller Street"},
{"id":361,"Pincode":"303036","State":null,"Address":"09 Golf Circle"},
{"id":362,"Pincode":"5455","State":null,"Address":"69 Upham Avenue"},
{"id":363,"Pincode":"33-240","State":null,"Address":"56 Barby Crossing"},
{"id":364,"Pincode":"33100","State":null,"Address":"02 Cottonwood Drive"},
{"id":365,"Pincode":"47140","State":null,"Address":"573 Macpherson Terrace"},
{"id":366,"Pincode":"999-8132","State":null,"Address":"7420 Commercial Way"},
{"id":367,"Pincode":"JE3","State":null,"Address":"3 Eggendart Way"},
{"id":368,"Pincode":"3526","State":null,"Address":"193 Quincy Parkway"},
{"id":369,"Pincode":"385700","State":null,"Address":"4 Spenser Drive"},
{"id":370,"Pincode":null,"State":null,"Address":"8956 Roxbury Alley"},
{"id":371,"Pincode":null,"State":null,"Address":"73676 Warrior Street"},
{"id":372,"Pincode":"89108-000","State":null,"Address":"709 Buell Drive"},
{"id":373,"Pincode":"8301","State":null,"Address":"8185 Trailsway Alley"},
{"id":374,"Pincode":"7780-325","State":"Beja","Address":"70 Southridge Parkway"},
{"id":375,"Pincode":null,"State":null,"Address":"3 Fairfield Lane"},
{"id":376,"Pincode":"407 61","State":null,"Address":"77150 Randy Lane"},
{"id":377,"Pincode":"5875","State":null,"Address":"2290 Grim Trail"},
{"id":378,"Pincode":"257 22","State":null,"Address":"35923 East Center"},
{"id":379,"Pincode":null,"State":null,"Address":"50 Dawn Avenue"},
{"id":380,"Pincode":"3030","State":"Kanton Bern","Address":"7 Rieder Trail"},
{"id":381,"Pincode":null,"State":null,"Address":"2181 Armistice Point"},
{"id":382,"Pincode":null,"State":null,"Address":"23202 Forster Road"},
{"id":383,"Pincode":"1105","State":null,"Address":"0 Mallory Point"},
{"id":384,"Pincode":"R21","State":null,"Address":"874 Mendota Place"},
{"id":385,"Pincode":"41004","State":"Guerrero","Address":"05753 Hayes Crossing"},
{"id":386,"Pincode":null,"State":null,"Address":"015 Boyd Junction"},
{"id":387,"Pincode":null,"State":null,"Address":"76948 Lighthouse Bay Hill"},
{"id":388,"Pincode":"68144","State":"Nebraska","Address":"2 Randy Avenue"},
{"id":389,"Pincode":"79705","State":"Texas","Address":"66 Eliot Road"},
{"id":390,"Pincode":null,"State":null,"Address":"0 Lakeland Alley"},
{"id":391,"Pincode":"361538","State":null,"Address":"636 Gulseth Court"},
{"id":392,"Pincode":"83-220","State":null,"Address":"8 Waubesa Street"},
{"id":393,"Pincode":null,"State":null,"Address":"686 Comanche Place"},
{"id":394,"Pincode":"26001","State":null,"Address":"70 Kipling Court"},
{"id":395,"Pincode":"06102 CEDEX 2","State":"Provence-Alpes-Côte d'Azur","Address":"0272 Duke Park"},
{"id":396,"Pincode":null,"State":null,"Address":"2712 Sommers Point"},
{"id":397,"Pincode":null,"State":null,"Address":"837 Sunfield Crossing"},
{"id":398,"Pincode":"639-2244","State":null,"Address":"9 Green Place"},
{"id":399,"Pincode":"3513","State":null,"Address":"76 Bay Court"},
{"id":400,"Pincode":"59320","State":null,"Address":"91148 Almo Crossing"},
{"id":401,"Pincode":null,"State":null,"Address":"055 Riverside Parkway"},
{"id":402,"Pincode":"451 61","State":"Västra Götaland","Address":"699 Mallory Alley"},
{"id":403,"Pincode":null,"State":null,"Address":"64079 Del Sol Plaza"},
{"id":404,"Pincode":"8701","State":null,"Address":"11 Texas Circle"},
{"id":405,"Pincode":null,"State":null,"Address":"4039 Artisan Alley"},
{"id":406,"Pincode":"4010","State":null,"Address":"092 Roxbury Street"},
{"id":407,"Pincode":"3530","State":null,"Address":"1 Sunbrook Street"},
{"id":408,"Pincode":null,"State":null,"Address":"84 Dakota Center"},
{"id":409,"Pincode":null,"State":null,"Address":"33 Rigney Hill"},
{"id":410,"Pincode":null,"State":null,"Address":"2 Westridge Point"},
{"id":411,"Pincode":null,"State":null,"Address":"08497 Miller Point"},
{"id":412,"Pincode":"42355 CEDEX","State":"Rhône-Alpes","Address":"40857 Ridge Oak Street"},
{"id":413,"Pincode":null,"State":null,"Address":"0196 Mitchell Plaza"},
{"id":414,"Pincode":"59111","State":null,"Address":"46 Vidon Pass"},
{"id":415,"Pincode":null,"State":null,"Address":"834 Manufacturers Avenue"},
{"id":416,"Pincode":null,"State":null,"Address":"1 Emmet Lane"},
{"id":417,"Pincode":"07-437","State":null,"Address":"105 High Crossing Center"},
{"id":418,"Pincode":"46160","State":null,"Address":"385 Westport Court"},
{"id":419,"Pincode":null,"State":null,"Address":"900 Holmberg Park"},
{"id":420,"Pincode":"424 10","State":"Västra Götaland","Address":"05 Eliot Street"},
{"id":421,"Pincode":null,"State":null,"Address":"066 Corry Crossing"},
{"id":422,"Pincode":"4760-606","State":"Braga","Address":"671 Talisman Place"},
{"id":423,"Pincode":null,"State":null,"Address":"3 Cordelia Crossing"},
{"id":424,"Pincode":null,"State":null,"Address":"05790 Nancy Circle"},
{"id":425,"Pincode":"90451","State":null,"Address":"0281 Fremont Hill"},
{"id":426,"Pincode":null,"State":null,"Address":"50 Sunnyside Alley"},
{"id":427,"Pincode":null,"State":null,"Address":"6 Sullivan Alley"},
{"id":428,"Pincode":null,"State":null,"Address":"9455 Nova Trail"},
{"id":429,"Pincode":null,"State":null,"Address":"0747 Golf Course Road"},
{"id":430,"Pincode":"9630-145","State":"Ilha de São Miguel","Address":"1 Sutteridge Street"},
{"id":431,"Pincode":null,"State":null,"Address":"86932 Heffernan Crossing"},
{"id":432,"Pincode":null,"State":null,"Address":"58304 Bobwhite Way"},
{"id":433,"Pincode":null,"State":null,"Address":"5 Hazelcrest Road"},
{"id":434,"Pincode":"5212","State":null,"Address":"078 Grim Road"},
{"id":435,"Pincode":"347395","State":null,"Address":"1 Arapahoe Parkway"},
{"id":436,"Pincode":"13240-000","State":null,"Address":"71308 Dapin Hill"},
{"id":437,"Pincode":"503 27","State":null,"Address":"85618 Bellgrove Park"},
{"id":438,"Pincode":null,"State":null,"Address":"7 Eagan Junction"},
{"id":439,"Pincode":null,"State":null,"Address":"4 Eastlawn Avenue"},
{"id":440,"Pincode":"02114","State":"Massachusetts","Address":"99586 Prentice Parkway"},
{"id":441,"Pincode":null,"State":null,"Address":"3214 Buhler Lane"},
{"id":442,"Pincode":null,"State":null,"Address":"81 Namekagon Hill"},
{"id":443,"Pincode":"503 27","State":null,"Address":"6226 Tennessee Lane"},
{"id":444,"Pincode":null,"State":null,"Address":"4862 Bowman Road"},
{"id":445,"Pincode":null,"State":null,"Address":"1090 Reinke Drive"},
{"id":446,"Pincode":"480-0132","State":null,"Address":"4926 Reinke Road"},
{"id":447,"Pincode":null,"State":null,"Address":"6204 Nevada Court"},
{"id":448,"Pincode":null,"State":null,"Address":"3616 Annamark Place"},
{"id":449,"Pincode":null,"State":null,"Address":"3077 Village Green Drive"},
{"id":450,"Pincode":"332 04","State":null,"Address":"233 Lerdahl Court"},
{"id":451,"Pincode":"10131","State":null,"Address":"4793 Morrow Circle"},
{"id":452,"Pincode":"6034","State":null,"Address":"10 Rockefeller Avenue"},
{"id":453,"Pincode":"7030","State":null,"Address":"377 Maple Court"},
{"id":454,"Pincode":"3830-268","State":"Aveiro","Address":"34 Fisk Crossing"},
{"id":455,"Pincode":"79977","State":"Texas","Address":"9 Northport Drive"},
{"id":456,"Pincode":"61609","State":"Michoacan De Ocampo","Address":"8 Ridge Oak Terrace"},
{"id":457,"Pincode":null,"State":null,"Address":"8873 Forest Road"},
{"id":458,"Pincode":null,"State":null,"Address":"108 Corscot Park"},
{"id":459,"Pincode":"10400","State":null,"Address":"0 Commercial Junction"},
{"id":460,"Pincode":null,"State":null,"Address":"55 Muir Parkway"},
{"id":461,"Pincode":null,"State":null,"Address":"20 Hazelcrest Point"},
{"id":462,"Pincode":null,"State":null,"Address":"94 Ohio Street"},
{"id":463,"Pincode":"10340","State":null,"Address":"1 Pawling Park"},
{"id":464,"Pincode":"51480","State":null,"Address":"58208 Weeping Birch Avenue"},
{"id":465,"Pincode":"42-310","State":null,"Address":"4271 Loeprich Place"},
{"id":466,"Pincode":"4819","State":"Provincie Noord-Brabant","Address":"347 Fisk Center"},
{"id":467,"Pincode":null,"State":null,"Address":"51243 Nova Pass"},
{"id":468,"Pincode":null,"State":null,"Address":"81604 Dakota Parkway"},
{"id":469,"Pincode":null,"State":null,"Address":"43 Pine View Terrace"},
{"id":470,"Pincode":"452988","State":null,"Address":"240 John Wall Court"},
{"id":471,"Pincode":"665236","State":null,"Address":"784 Farwell Street"},
{"id":472,"Pincode":"188838","State":null,"Address":"98329 Everett Crossing"},
{"id":473,"Pincode":null,"State":null,"Address":"3 Kenwood Way"},
{"id":474,"Pincode":null,"State":null,"Address":"749 Debra Hill"},
{"id":475,"Pincode":null,"State":null,"Address":"557 Stoughton Junction"},
{"id":476,"Pincode":null,"State":null,"Address":"771 Monica Drive"},
{"id":477,"Pincode":"6185-255","State":"Castelo Branco","Address":"00 Sutherland Hill"},
{"id":478,"Pincode":"37-240","State":null,"Address":"69 Susan Parkway"},
{"id":479,"Pincode":"3840-467","State":"Aveiro","Address":"580 Kings Way"},
{"id":480,"Pincode":"7320","State":null,"Address":"38 Stone Corner Road"},
{"id":481,"Pincode":"3733","State":null,"Address":"341 Pond Crossing"},
{"id":482,"Pincode":null,"State":null,"Address":"6661 Waubesa Road"},
{"id":483,"Pincode":"762507","State":null,"Address":"6126 Village Green Way"},
{"id":484,"Pincode":null,"State":null,"Address":"3245 Stone Corner Parkway"},
{"id":485,"Pincode":null,"State":null,"Address":"441 Northport Alley"},
{"id":486,"Pincode":"827 24","State":"Gävleborg","Address":"3 Prairieview Road"},
{"id":487,"Pincode":null,"State":null,"Address":"71942 Kipling Road"},
{"id":488,"Pincode":null,"State":null,"Address":"3 Namekagon Avenue"},
{"id":489,"Pincode":"606771","State":null,"Address":"238 Calypso Trail"},
{"id":490,"Pincode":"92153","State":"California","Address":"6 Cherokee Point"},
{"id":491,"Pincode":null,"State":null,"Address":"60644 Waxwing Lane"},
{"id":492,"Pincode":null,"State":null,"Address":"33935 Nelson Terrace"},
{"id":493,"Pincode":null,"State":null,"Address":"288 Mallory Court"},
{"id":494,"Pincode":"83404 CEDEX","State":"Provence-Alpes-Côte d'Azur","Address":"600 East Pass"},
{"id":495,"Pincode":null,"State":null,"Address":"59770 Granby Plaza"},
{"id":496,"Pincode":"97-306","State":null,"Address":"880 Hollow Ridge Plaza"},
{"id":497,"Pincode":null,"State":null,"Address":"55925 Garrison Drive"},
{"id":498,"Pincode":null,"State":null,"Address":"75 Algoma Circle"},
{"id":499,"Pincode":null,"State":null,"Address":"407 Golf Course Junction"},
{"id":500,"Pincode":null,"State":null,"Address":"7255 Dunning Hill"},
{"id":501,"Pincode":null,"State":null,"Address":"746 Armistice Way"},
{"id":502,"Pincode":null,"State":null,"Address":"1 Stang Court"},
{"id":503,"Pincode":null,"State":null,"Address":"356 Darwin Road"},
{"id":504,"Pincode":"182370","State":null,"Address":"0 La Follette Avenue"},
{"id":505,"Pincode":null,"State":null,"Address":"911 Ruskin Way"},
{"id":506,"Pincode":"86730-000","State":null,"Address":"62775 Laurel Avenue"},
{"id":507,"Pincode":"793 05","State":null,"Address":"0 Bellgrove Point"},
{"id":508,"Pincode":"43270","State":null,"Address":"993 Hanson Terrace"},
{"id":509,"Pincode":"446600","State":null,"Address":"59843 Oakridge Circle"},
{"id":510,"Pincode":null,"State":null,"Address":"1 3rd Place"},
{"id":511,"Pincode":null,"State":null,"Address":"011 Reindahl Avenue"},
{"id":512,"Pincode":"66053","State":"Nuevo Leon","Address":"499 Packers Trail"},
{"id":513,"Pincode":null,"State":null,"Address":"662 Fordem Place"},
{"id":514,"Pincode":null,"State":null,"Address":"30 Loftsgordon Drive"},
{"id":515,"Pincode":"734048","State":null,"Address":"8 Sunfield Court"},
{"id":516,"Pincode":null,"State":null,"Address":"331 Melody Drive"},
{"id":517,"Pincode":"8010","State":"Nordland","Address":"17384 Melvin Terrace"},
{"id":518,"Pincode":"5249","State":null,"Address":"40 Iowa Terrace"},
{"id":519,"Pincode":"607340","State":null,"Address":"48712 Esker Lane"},
{"id":520,"Pincode":"96370","State":"Veracruz Llave","Address":"11135 Katie Way"},
{"id":521,"Pincode":"404446","State":null,"Address":"22 Farwell Center"},
{"id":522,"Pincode":"461199","State":null,"Address":"5595 Karstens Way"},
{"id":523,"Pincode":null,"State":null,"Address":"5699 Bluestem Pass"},
{"id":524,"Pincode":"607676","State":null,"Address":"13251 Clove Hill"},
{"id":525,"Pincode":"366309","State":null,"Address":"359 Delladonna Pass"},
{"id":526,"Pincode":null,"State":null,"Address":"839 Fuller Pass"},
{"id":527,"Pincode":null,"State":null,"Address":"0630 8th Point"},
{"id":528,"Pincode":null,"State":null,"Address":"9 Bellgrove Circle"},
{"id":529,"Pincode":"80337","State":"Bayern","Address":"5522 Goodland Pass"},
{"id":530,"Pincode":null,"State":null,"Address":"02 Anthes Park"},
{"id":531,"Pincode":null,"State":null,"Address":"50 Gina Alley"},
{"id":532,"Pincode":"3332","State":null,"Address":"36 Longview Street"},
{"id":533,"Pincode":"65470-000","State":null,"Address":"0146 Randy Plaza"},
{"id":534,"Pincode":"1239","State":"Budapest","Address":"712 Aberg Junction"},
{"id":535,"Pincode":"357371","State":null,"Address":"6 Dayton Point"},
{"id":536,"Pincode":null,"State":null,"Address":"1210 Johnson Parkway"},
{"id":537,"Pincode":"4640-540","State":"Porto","Address":"76891 Michigan Point"},
{"id":538,"Pincode":"589 00","State":"Östergötland","Address":"17 Kings Trail"},
{"id":539,"Pincode":"9611","State":null,"Address":"542 Kennedy Drive"},
{"id":540,"Pincode":null,"State":null,"Address":"1 Loftsgordon Circle"},
{"id":541,"Pincode":null,"State":null,"Address":"275 Oak Valley Trail"},
{"id":542,"Pincode":null,"State":null,"Address":"1 Manufacturers Terrace"},
{"id":543,"Pincode":null,"State":null,"Address":"30589 Mccormick Drive"},
{"id":544,"Pincode":null,"State":null,"Address":"48845 Clarendon Point"},
{"id":545,"Pincode":null,"State":null,"Address":"7 Kinsman Avenue"},
{"id":546,"Pincode":"6503","State":null,"Address":"0 Maywood Way"},
{"id":547,"Pincode":"30430","State":null,"Address":"16977 Sommers Pass"},
{"id":548,"Pincode":null,"State":null,"Address":"6 Petterle Trail"},
{"id":549,"Pincode":"423440","State":null,"Address":"85 7th Junction"},
{"id":550,"Pincode":"80000","State":null,"Address":"9199 Surrey Circle"},
{"id":551,"Pincode":"SG4","State":"England","Address":"22 Sundown Center"},
{"id":552,"Pincode":null,"State":null,"Address":"84151 Ryan Parkway"},
{"id":553,"Pincode":"905-0002","State":null,"Address":"1692 Schlimgen Place"},
{"id":554,"Pincode":"9272","State":null,"Address":"65 Parkside Plaza"},
{"id":555,"Pincode":null,"State":null,"Address":"3 Center Plaza"},
{"id":556,"Pincode":null,"State":null,"Address":"66528 Ilene Drive"},
{"id":557,"Pincode":"1380","State":null,"Address":"18 West Court"},
{"id":558,"Pincode":null,"State":null,"Address":"8508 Northview Hill"},
{"id":559,"Pincode":null,"State":null,"Address":"05 Ridge Oak Avenue"},
{"id":560,"Pincode":null,"State":null,"Address":"25122 Becker Plaza"},
{"id":561,"Pincode":null,"State":null,"Address":"52690 High Crossing Crossing"},
{"id":562,"Pincode":"42-293","State":null,"Address":"480 Grayhawk Plaza"},
{"id":563,"Pincode":null,"State":null,"Address":"8611 Iowa Terrace"},
{"id":564,"Pincode":"37665","State":"Tennessee","Address":"28 Boyd Place"},
{"id":565,"Pincode":"29193 CEDEX","State":"Bretagne","Address":"388 Fisk Hill"},
{"id":566,"Pincode":"11006","State":null,"Address":"04 Mockingbird Point"},
{"id":567,"Pincode":"3905","State":null,"Address":"9 Basil Hill"},
{"id":568,"Pincode":null,"State":null,"Address":"4123 Pankratz Trail"},
{"id":569,"Pincode":null,"State":null,"Address":"53130 Lerdahl Point"},
{"id":570,"Pincode":null,"State":null,"Address":"7 Kingsford Circle"},
{"id":571,"Pincode":null,"State":null,"Address":"5896 Steensland Pass"},
{"id":572,"Pincode":null,"State":null,"Address":"2 Mallard Street"},
{"id":573,"Pincode":"396564","State":null,"Address":"62599 Glendale Terrace"},
{"id":574,"Pincode":null,"State":null,"Address":"252 Corscot Drive"},
{"id":575,"Pincode":"33001","State":null,"Address":"765 Kinsman Crossing"},
{"id":576,"Pincode":"811-3522","State":null,"Address":"4981 Weeping Birch Lane"},
{"id":577,"Pincode":null,"State":null,"Address":"05207 Meadow Valley Pass"},
{"id":578,"Pincode":null,"State":null,"Address":"9997 Sommers Alley"},
{"id":579,"Pincode":"124 76","State":"Stockholm","Address":"199 Maple Wood Point"},
{"id":580,"Pincode":"425050","State":null,"Address":"14 Judy Street"},
{"id":581,"Pincode":null,"State":null,"Address":"0003 Ludington Road"},
{"id":582,"Pincode":"64-300","State":null,"Address":"51479 Claremont Drive"},
{"id":583,"Pincode":"40596","State":"Kentucky","Address":"2031 7th Hill"},
{"id":584,"Pincode":"810009","State":null,"Address":"97104 Merrick Way"},
{"id":585,"Pincode":"84240","State":null,"Address":"1 Pleasure Drive"},
{"id":586,"Pincode":"13130","State":null,"Address":"3 Algoma Hill"},
{"id":587,"Pincode":"5417","State":null,"Address":"757 Sunfield Way"},
{"id":588,"Pincode":null,"State":null,"Address":"08370 International Circle"},
{"id":589,"Pincode":"29411 CEDEX","State":"Bretagne","Address":"404 Stuart Parkway"},
{"id":590,"Pincode":null,"State":null,"Address":"61 Schiller Lane"},
{"id":591,"Pincode":null,"State":null,"Address":"8 Oneill Way"},
{"id":592,"Pincode":null,"State":null,"Address":"65 Division Trail"},
{"id":593,"Pincode":"990-2412","State":null,"Address":"2 Fulton Point"},
{"id":594,"Pincode":"P0T","State":"Ontario","Address":"32 Carioca Crossing"},
{"id":595,"Pincode":null,"State":null,"Address":"1 Ronald Regan Drive"},
{"id":596,"Pincode":null,"State":null,"Address":"4151 Brickson Park Lane"},
{"id":597,"Pincode":"6671","State":null,"Address":"37474 Alpine Alley"},
{"id":598,"Pincode":null,"State":null,"Address":"99 Oakridge Avenue"},
{"id":599,"Pincode":"301259","State":null,"Address":"82550 Sunfield Crossing"},
{"id":600,"Pincode":"7005","State":null,"Address":"679 Maple Wood Court"},
{"id":601,"Pincode":null,"State":null,"Address":"38641 Blackbird Hill"},
{"id":602,"Pincode":"45141","State":"Nordrhein-Westfalen","Address":"15353 Duke Park"},
{"id":603,"Pincode":null,"State":null,"Address":"7 Summerview Center"},
{"id":604,"Pincode":null,"State":null,"Address":"7 Havey Point"},
{"id":605,"Pincode":null,"State":null,"Address":"69 Summit Avenue"},
{"id":606,"Pincode":null,"State":null,"Address":"26514 Grasskamp Place"},
{"id":607,"Pincode":"135 22","State":"Stockholm","Address":"26661 Dakota Alley"},
{"id":608,"Pincode":null,"State":null,"Address":"81 Leroy Pass"},
{"id":609,"Pincode":null,"State":null,"Address":"6 Carberry Drive"},
{"id":610,"Pincode":null,"State":null,"Address":"63372 Oneill Parkway"},
{"id":611,"Pincode":"51074 CEDEX","State":"Champagne-Ardenne","Address":"0318 Summerview Place"},
{"id":612,"Pincode":"82-420","State":null,"Address":"6 Vera Parkway"},
{"id":613,"Pincode":null,"State":null,"Address":"29612 Becker Street"},
{"id":614,"Pincode":null,"State":null,"Address":"3 Waubesa Crossing"},
{"id":615,"Pincode":"999-7734","State":null,"Address":"5365 Toban Alley"},
{"id":616,"Pincode":null,"State":null,"Address":"02 Declaration Junction"},
{"id":617,"Pincode":"19030","State":null,"Address":"3658 Oxford Lane"},
{"id":618,"Pincode":null,"State":null,"Address":"77967 Merrick Place"},
{"id":619,"Pincode":"76320-000","State":null,"Address":"003 Fremont Alley"},
{"id":620,"Pincode":"664 24","State":null,"Address":"1655 Roxbury Way"},
{"id":621,"Pincode":"7042","State":"Sor-Trondelag","Address":"76061 Waubesa Crossing"},
{"id":622,"Pincode":null,"State":null,"Address":"8 David Court"},
{"id":623,"Pincode":"5186","State":null,"Address":"9669 Pond Alley"},
{"id":624,"Pincode":"23210","State":null,"Address":"9625 Arkansas Place"},
{"id":625,"Pincode":null,"State":null,"Address":"004 Bunting Pass"},
{"id":626,"Pincode":"46-320","State":null,"Address":"3753 Huxley Pass"},
{"id":627,"Pincode":"5409","State":null,"Address":"48576 Hermina Place"},
{"id":628,"Pincode":null,"State":null,"Address":"04 Crest Line Plaza"},
{"id":629,"Pincode":null,"State":null,"Address":"1 Crescent Oaks Pass"},
{"id":630,"Pincode":"624607","State":null,"Address":"9891 Warbler Point"},
{"id":631,"Pincode":null,"State":null,"Address":"8 Kensington Way"},
{"id":632,"Pincode":null,"State":null,"Address":"711 Holy Cross Circle"},
{"id":633,"Pincode":"3700-819","State":"Aveiro","Address":"62 Sachtjen Junction"},
{"id":634,"Pincode":null,"State":null,"Address":"963 Russell Lane"},
{"id":635,"Pincode":null,"State":null,"Address":"7 Tomscot Way"},
{"id":636,"Pincode":"757 54","State":"Uppsala","Address":"14 Bunting Terrace"},
{"id":637,"Pincode":"V4C","State":"British Columbia","Address":"33 New Castle Pass"},
{"id":638,"Pincode":"20125","State":"Lombardia","Address":"02276 Tony Way"},
{"id":639,"Pincode":null,"State":null,"Address":"04 Park Meadow Way"},
{"id":640,"Pincode":null,"State":null,"Address":"5 Buell Court"},
{"id":641,"Pincode":null,"State":null,"Address":"660 Knutson Parkway"},
{"id":642,"Pincode":"860008","State":null,"Address":"6 Spenser Junction"},
{"id":643,"Pincode":"1028","State":"New South Wales","Address":"67945 Washington Parkway"},
{"id":644,"Pincode":null,"State":null,"Address":"89 Troy Avenue"},
{"id":645,"Pincode":"250618","State":null,"Address":"1 Marquette Court"},
{"id":646,"Pincode":null,"State":null,"Address":"24503 Mccormick Road"},
{"id":647,"Pincode":null,"State":null,"Address":"5575 Carpenter Drive"},
{"id":648,"Pincode":null,"State":null,"Address":"66 Nancy Center"},
{"id":649,"Pincode":null,"State":null,"Address":"81192 Graceland Pass"},
{"id":650,"Pincode":"88500-000","State":null,"Address":"70 Muir Trail"},
{"id":651,"Pincode":"8418","State":null,"Address":"50527 Dakota Court"},
{"id":652,"Pincode":"368540","State":null,"Address":"39937 Farmco Lane"},
{"id":653,"Pincode":null,"State":null,"Address":"35 Hollow Ridge Center"},
{"id":654,"Pincode":"4750-624","State":"Braga","Address":"61 Maple Street"},
{"id":655,"Pincode":null,"State":null,"Address":"29 Everett Park"},
{"id":656,"Pincode":null,"State":null,"Address":"00 Pleasure Junction"},
{"id":657,"Pincode":null,"State":null,"Address":"860 Banding Circle"},
{"id":658,"Pincode":null,"State":null,"Address":"0 Mcbride Crossing"},
{"id":659,"Pincode":null,"State":null,"Address":"8 Badeau Drive"},
{"id":660,"Pincode":null,"State":null,"Address":"769 Laurel Drive"},
{"id":661,"Pincode":"21460","State":"Baja California","Address":"1938 Algoma Center"},
{"id":662,"Pincode":null,"State":null,"Address":"36 Miller Place"},
{"id":663,"Pincode":"37215","State":"Tennessee","Address":"66988 Dahle Pass"},
{"id":664,"Pincode":"4805","State":null,"Address":"9 Myrtle Point"},
{"id":665,"Pincode":"46406","State":"Indiana","Address":"0215 Doe Crossing Lane"},
{"id":666,"Pincode":null,"State":null,"Address":"2783 Packers Hill"},
{"id":667,"Pincode":null,"State":null,"Address":"22 Tennessee Junction"},
{"id":668,"Pincode":"678450","State":null,"Address":"5 Cody Trail"},
{"id":669,"Pincode":null,"State":null,"Address":"27 Ludington Trail"},
{"id":670,"Pincode":null,"State":null,"Address":"0087 Hollow Ridge Place"},
{"id":671,"Pincode":"45810-000","State":null,"Address":"0 Village Green Drive"},
{"id":672,"Pincode":"IM4","State":null,"Address":"428 Ronald Regan Trail"},
{"id":673,"Pincode":"309999","State":null,"Address":"07679 Northview Alley"},
{"id":674,"Pincode":"7036","State":null,"Address":"51 Glendale Drive"},
{"id":675,"Pincode":"691 05","State":null,"Address":"46772 Pleasure Alley"},
{"id":676,"Pincode":"30175","State":"Veneto","Address":"29986 Doe Crossing Trail"},
{"id":677,"Pincode":"05-090","State":null,"Address":"86461 Morningstar Place"},
{"id":678,"Pincode":"6214","State":null,"Address":"167 Karstens Place"},
{"id":679,"Pincode":null,"State":null,"Address":"01990 Artisan Circle"},
{"id":680,"Pincode":"4901","State":null,"Address":"46304 Paget Lane"},
{"id":681,"Pincode":null,"State":null,"Address":"27373 Burning Wood Avenue"},
{"id":682,"Pincode":"80004 CEDEX 1","State":"Picardie","Address":"78476 Sage Plaza"},
{"id":683,"Pincode":"69260-000","State":null,"Address":"7 Menomonie Court"},
{"id":684,"Pincode":"996-0087","State":null,"Address":"1 Prairie Rose Place"},
{"id":685,"Pincode":null,"State":null,"Address":"23156 Rieder Terrace"},
{"id":686,"Pincode":"94180","State":null,"Address":"17 Cody Terrace"},
{"id":687,"Pincode":"1235","State":"New South Wales","Address":"20806 Laurel Center"},
{"id":688,"Pincode":null,"State":null,"Address":"59 Cardinal Lane"},
{"id":689,"Pincode":null,"State":null,"Address":"08413 East Circle"},
{"id":690,"Pincode":"352680","State":null,"Address":"32399 Annamark Drive"},
{"id":691,"Pincode":"3334","State":null,"Address":"19147 Eagle Crest Plaza"},
{"id":692,"Pincode":"34-125","State":null,"Address":"8 Toban Junction"},
{"id":693,"Pincode":"82070 CEDEX","State":"Midi-Pyrénées","Address":"713 Granby Street"},
{"id":694,"Pincode":"64100-000","State":null,"Address":"13 Elgar Terrace"},
{"id":695,"Pincode":"39180","State":null,"Address":"56464 Mandrake Plaza"},
{"id":696,"Pincode":"1212","State":null,"Address":"02 Mallory Place"},
{"id":697,"Pincode":"9201","State":null,"Address":"1408 Longview Drive"},
{"id":698,"Pincode":null,"State":null,"Address":"48 Lukken Alley"},
{"id":699,"Pincode":null,"State":null,"Address":"77 Porter Court"},
{"id":700,"Pincode":null,"State":null,"Address":"10 Garrison Center"},
{"id":701,"Pincode":null,"State":null,"Address":"35 Manley Junction"},
{"id":702,"Pincode":"3308","State":null,"Address":"7 Ludington Park"},
{"id":703,"Pincode":"13315-000","State":null,"Address":"439 Twin Pines Drive"},
{"id":704,"Pincode":null,"State":null,"Address":"93 Mayer Court"},
{"id":705,"Pincode":null,"State":null,"Address":"973 Fuller Point"},
{"id":706,"Pincode":"24421","State":null,"Address":"8248 Buhler Trail"},
{"id":707,"Pincode":null,"State":null,"Address":"46 Brentwood Alley"},
{"id":708,"Pincode":"141146","State":null,"Address":"9 Moulton Point"},
{"id":709,"Pincode":null,"State":null,"Address":"4417 Roth Lane"},
{"id":710,"Pincode":"60657","State":"Illinois","Address":"6050 7th Hill"},
{"id":711,"Pincode":"5561","State":null,"Address":"5692 Di Loreto Park"},
{"id":712,"Pincode":"4635-637","State":"Porto","Address":"21312 Northwestern Avenue"},
{"id":713,"Pincode":"06-102","State":null,"Address":"153 Brown Center"},
{"id":714,"Pincode":"64-120","State":null,"Address":"9717 Dorton Place"},
{"id":715,"Pincode":"950-3341","State":null,"Address":"1844 Marquette Park"},
{"id":716,"Pincode":null,"State":null,"Address":"766 Arrowood Junction"},
{"id":717,"Pincode":"14001","State":null,"Address":"53 Becker Way"},
{"id":718,"Pincode":null,"State":null,"Address":"4 Lighthouse Bay Road"},
{"id":719,"Pincode":null,"State":null,"Address":"1 Clemons Park"},
{"id":720,"Pincode":"27600-000","State":null,"Address":"6 Transport Trail"},
{"id":721,"Pincode":"7504","State":null,"Address":"8 Cambridge Parkway"},
{"id":722,"Pincode":null,"State":null,"Address":"819 Grayhawk Point"},
{"id":723,"Pincode":"1960","State":"Region Hovedstaden","Address":"612 Crest Line Lane"},
{"id":724,"Pincode":null,"State":null,"Address":"96 Annamark Avenue"},
{"id":725,"Pincode":null,"State":null,"Address":"9274 Esker Point"},
{"id":726,"Pincode":"R3J","State":"Alberta","Address":"75925 Lakeland Pass"},
{"id":727,"Pincode":"4505-569","State":"Aveiro","Address":"66 Truax Parkway"},
{"id":728,"Pincode":"142451","State":null,"Address":"2 Moulton Trail"},
{"id":729,"Pincode":"4500-695","State":"Aveiro","Address":"417 Blaine Way"},
{"id":730,"Pincode":null,"State":null,"Address":"4 West Place"},
{"id":731,"Pincode":"38319 CEDEX","State":"Rhône-Alpes","Address":"233 Brown Pass"},
{"id":732,"Pincode":null,"State":null,"Address":"65 Lawn Parkway"},
{"id":733,"Pincode":"191049","State":null,"Address":"23 Fisk Trail"},
{"id":734,"Pincode":null,"State":null,"Address":"473 Express Center"},
{"id":735,"Pincode":"4005","State":"Rogaland","Address":"55045 Longview Way"},
{"id":736,"Pincode":null,"State":null,"Address":"8 Vernon Point"},
{"id":737,"Pincode":"LE14","State":"England","Address":"805 Larry Court"},
{"id":738,"Pincode":"88837","State":"Sabah","Address":"50815 Calypso Center"},
{"id":739,"Pincode":null,"State":null,"Address":"710 Nova Terrace"},
{"id":740,"Pincode":"77014 CEDEX","State":"Île-de-France","Address":"26 Washington Pass"},
{"id":741,"Pincode":"39170","State":null,"Address":"97621 Spaight Road"},
{"id":742,"Pincode":null,"State":null,"Address":"0027 Dryden Parkway"},
{"id":743,"Pincode":"30648","State":"Perak","Address":"265 Hollow Ridge Circle"},
{"id":744,"Pincode":null,"State":null,"Address":"97 Eastwood Park"},
{"id":745,"Pincode":"23242","State":null,"Address":"87836 Donald Point"},
{"id":746,"Pincode":"357329","State":null,"Address":"68254 Miller Lane"},
{"id":747,"Pincode":"542018","State":null,"Address":"51864 Darwin Avenue"},
{"id":748,"Pincode":"526529","State":null,"Address":"6 Almo Alley"},
{"id":749,"Pincode":null,"State":null,"Address":"049 Oak Valley Trail"},
{"id":750,"Pincode":null,"State":null,"Address":"3809 Buena Vista Road"},
{"id":751,"Pincode":"205018","State":null,"Address":"8 Kingsford Avenue"},
{"id":752,"Pincode":"22339","State":"Hamburg","Address":"0570 Hauk Circle"},
{"id":753,"Pincode":null,"State":null,"Address":"9865 Debra Alley"},
{"id":754,"Pincode":"73091 CEDEX","State":"Rhône-Alpes","Address":"84771 Alpine Parkway"},
{"id":755,"Pincode":null,"State":null,"Address":"4 Schurz Alley"},
{"id":756,"Pincode":null,"State":null,"Address":"0132 South Park"},
{"id":757,"Pincode":null,"State":null,"Address":"3715 Waubesa Circle"},
{"id":758,"Pincode":null,"State":null,"Address":"206 Mockingbird Crossing"},
{"id":759,"Pincode":null,"State":null,"Address":"9797 Gina Center"},
{"id":760,"Pincode":null,"State":null,"Address":"81476 Calypso Trail"},
{"id":761,"Pincode":null,"State":null,"Address":"63560 Randy Terrace"},
{"id":762,"Pincode":"468 22","State":null,"Address":"58746 Johnson Junction"},
{"id":763,"Pincode":null,"State":null,"Address":"22 Red Cloud Park"},
{"id":764,"Pincode":null,"State":null,"Address":"9 Corben Pass"},
{"id":765,"Pincode":null,"State":null,"Address":"711 Upham Crossing"},
{"id":766,"Pincode":"3303","State":null,"Address":"83699 Paget Terrace"},
{"id":767,"Pincode":"27200-000","State":null,"Address":"22 Cordelia Trail"},
{"id":768,"Pincode":null,"State":null,"Address":"33 Moose Circle"},
{"id":769,"Pincode":null,"State":null,"Address":"88 Stoughton Parkway"},
{"id":770,"Pincode":null,"State":null,"Address":"62 Buena Vista Junction"},
{"id":771,"Pincode":"2102","State":null,"Address":"1517 Forest Run Road"},
{"id":772,"Pincode":null,"State":null,"Address":"29 Dovetail Hill"},
{"id":773,"Pincode":"59550-000","State":null,"Address":"61241 Waxwing Crossing"},
{"id":774,"Pincode":"44130","State":null,"Address":"4 Di Loreto Center"},
{"id":775,"Pincode":null,"State":null,"Address":"04 Monterey Point"},
{"id":776,"Pincode":null,"State":null,"Address":"84281 Autumn Leaf Street"},
{"id":777,"Pincode":null,"State":null,"Address":"79 Schlimgen Lane"},
{"id":778,"Pincode":null,"State":null,"Address":"776 Coolidge Avenue"},
{"id":779,"Pincode":"59112","State":"Montana","Address":"4940 Anderson Place"},
{"id":780,"Pincode":null,"State":null,"Address":"8149 Graceland Crossing"},
{"id":781,"Pincode":null,"State":null,"Address":"69 Merchant Terrace"},
{"id":782,"Pincode":null,"State":null,"Address":"90068 Golf Lane"},
{"id":783,"Pincode":null,"State":null,"Address":"63925 Oak Valley Way"},
{"id":784,"Pincode":null,"State":null,"Address":"9104 Onsgard Plaza"},
{"id":785,"Pincode":"92848 CEDEX","State":"Île-de-France","Address":"689 Summit Crossing"},
{"id":786,"Pincode":null,"State":null,"Address":"8 Burrows Pass"},
{"id":787,"Pincode":null,"State":null,"Address":"4 Schiller Point"},
{"id":788,"Pincode":null,"State":null,"Address":"1 7th Place"},
{"id":789,"Pincode":null,"State":null,"Address":"13555 Gale Lane"},
{"id":790,"Pincode":null,"State":null,"Address":"13593 Moulton Circle"},
{"id":791,"Pincode":"86001","State":null,"Address":"984 Glacier Hill Court"},
{"id":792,"Pincode":null,"State":null,"Address":"311 Northfield Point"},
{"id":793,"Pincode":null,"State":null,"Address":"2957 Kim Plaza"},
{"id":794,"Pincode":"2503","State":null,"Address":"7 Mitchell Trail"},
{"id":795,"Pincode":null,"State":null,"Address":"741 Talmadge Crossing"},
{"id":796,"Pincode":"84977 CEDEX","State":"Provence-Alpes-Côte d'Azur","Address":"15455 Scoville Lane"},
{"id":797,"Pincode":"27-220","State":null,"Address":"49 Hovde Point"},
{"id":798,"Pincode":"49246","State":null,"Address":"67 Old Shore Crossing"},
{"id":799,"Pincode":null,"State":null,"Address":"47323 Forster Terrace"},
{"id":800,"Pincode":null,"State":null,"Address":"6471 Magdeline Center"},
{"id":801,"Pincode":null,"State":null,"Address":"8142 Brickson Park Court"},
{"id":802,"Pincode":null,"State":null,"Address":"02 Starling Point"},
{"id":803,"Pincode":null,"State":null,"Address":"68 Vera Park"},
{"id":804,"Pincode":null,"State":null,"Address":"2 Prairie Rose Alley"},
{"id":805,"Pincode":null,"State":null,"Address":"41901 Morning Point"},
{"id":806,"Pincode":null,"State":null,"Address":"2352 Dunning Parkway"},
{"id":807,"Pincode":"48120","State":null,"Address":"40003 Becker Plaza"},
{"id":808,"Pincode":null,"State":null,"Address":"34228 Northview Point"},
{"id":809,"Pincode":null,"State":null,"Address":"24 Coolidge Park"},
{"id":810,"Pincode":"4575-062","State":"Porto","Address":"5306 Lawn Avenue"},
{"id":811,"Pincode":null,"State":null,"Address":"2 Bay Street"},
{"id":812,"Pincode":null,"State":null,"Address":"85 Elgar Plaza"},
{"id":813,"Pincode":"427 40","State":"Västra Götaland","Address":"040 Fair Oaks Terrace"},
{"id":814,"Pincode":"75643 CEDEX 13","State":"Île-de-France","Address":"80269 Armistice Street"},
{"id":815,"Pincode":null,"State":null,"Address":"4680 Transport Street"},
{"id":816,"Pincode":"84019","State":null,"Address":"6179 Lyons Junction"},
{"id":817,"Pincode":null,"State":null,"Address":"80900 School Lane"},
{"id":818,"Pincode":null,"State":null,"Address":"3961 Oneill Place"},
{"id":819,"Pincode":null,"State":null,"Address":"7183 Helena Parkway"},
{"id":820,"Pincode":"93335 CEDEX","State":"Île-de-France","Address":"397 Glacier Hill Plaza"},
{"id":821,"Pincode":null,"State":null,"Address":"053 Westerfield Court"},
{"id":822,"Pincode":null,"State":null,"Address":"86009 Bunker Hill Terrace"},
{"id":823,"Pincode":"641400","State":null,"Address":"2632 Independence Place"},
{"id":824,"Pincode":"241904","State":null,"Address":"11871 Anthes Trail"},
{"id":825,"Pincode":null,"State":null,"Address":"00306 Buena Vista Lane"},
{"id":826,"Pincode":"4940-342","State":"Viana do Castelo","Address":"4 Northridge Terrace"},
{"id":827,"Pincode":"3240-305","State":"Leiria","Address":"81110 8th Alley"},
{"id":828,"Pincode":null,"State":null,"Address":"7802 Pond Avenue"},
{"id":829,"Pincode":null,"State":null,"Address":"9981 Badeau Trail"},
{"id":830,"Pincode":null,"State":null,"Address":"2 Mockingbird Drive"},
{"id":831,"Pincode":"80249","State":"Colorado","Address":"08 Spohn Place"},
{"id":832,"Pincode":null,"State":null,"Address":"24 Lindbergh Street"},
{"id":833,"Pincode":null,"State":null,"Address":"1 Carberry Center"},
{"id":834,"Pincode":"186445","State":null,"Address":"9944 Starling Alley"},
{"id":835,"Pincode":"330 21","State":null,"Address":"4042 Surrey Drive"},
{"id":836,"Pincode":null,"State":null,"Address":"49188 Shoshone Street"},
{"id":837,"Pincode":null,"State":null,"Address":"20 Holy Cross Place"},
{"id":838,"Pincode":null,"State":null,"Address":"2 Helena Point"},
{"id":839,"Pincode":"34-145","State":null,"Address":"5366 Hollow Ridge Hill"},
{"id":840,"Pincode":null,"State":null,"Address":"02189 Meadow Vale Road"},
{"id":841,"Pincode":null,"State":null,"Address":"1 Waxwing Pass"},
{"id":842,"Pincode":null,"State":null,"Address":"31849 Rutledge Alley"},
{"id":843,"Pincode":"90120","State":null,"Address":"68 Mitchell Way"},
{"id":844,"Pincode":"140074","State":null,"Address":"8 Autumn Leaf Lane"},
{"id":845,"Pincode":"9488","State":null,"Address":"03198 Annamark Lane"},
{"id":846,"Pincode":null,"State":null,"Address":"06 Banding Junction"},
{"id":847,"Pincode":"30440","State":null,"Address":"46032 Brickson Park Center"},
{"id":848,"Pincode":"26301","State":null,"Address":"48523 Orin Circle"},
{"id":849,"Pincode":null,"State":null,"Address":"90654 Grayhawk Crossing"},
{"id":850,"Pincode":"772 00","State":null,"Address":"4422 Hoepker Junction"},
{"id":851,"Pincode":"98280-000","State":null,"Address":"2 Anhalt Plaza"},
{"id":852,"Pincode":null,"State":null,"Address":"27 Columbus Drive"},
{"id":853,"Pincode":"89500-000","State":null,"Address":"75176 Cardinal Junction"},
{"id":854,"Pincode":null,"State":null,"Address":"478 Schmedeman Avenue"},
{"id":855,"Pincode":null,"State":null,"Address":"484 Veith Trail"},
{"id":856,"Pincode":"7214","State":null,"Address":"45179 Rockefeller Trail"},
{"id":857,"Pincode":"4624","State":null,"Address":"71 Crescent Oaks Center"},
{"id":858,"Pincode":"309092","State":null,"Address":"56 Havey Hill"},
{"id":859,"Pincode":"4435","State":null,"Address":"5 Hanson Court"},
{"id":860,"Pincode":"9318","State":null,"Address":"79 Forest Run Crossing"},
{"id":861,"Pincode":null,"State":null,"Address":"89280 Coleman Way"},
{"id":862,"Pincode":null,"State":null,"Address":"6800 Lighthouse Bay Center"},
{"id":863,"Pincode":null,"State":null,"Address":"3 Sage Alley"},
{"id":864,"Pincode":"141160","State":null,"Address":"05 Garrison Center"},
{"id":865,"Pincode":null,"State":null,"Address":"1301 Magdeline Avenue"},
{"id":866,"Pincode":null,"State":null,"Address":"383 Schlimgen Trail"},
{"id":867,"Pincode":null,"State":null,"Address":"0601 Macpherson Hill"},
{"id":868,"Pincode":null,"State":null,"Address":"235 Elmside Road"},
{"id":869,"Pincode":null,"State":null,"Address":"25149 Northport Street"},
{"id":870,"Pincode":"38-322","State":null,"Address":"3897 Vera Park"},
{"id":871,"Pincode":"426-0025","State":null,"Address":"22 Sheridan Avenue"},
{"id":872,"Pincode":"2000-355","State":"Santarém","Address":"9136 Petterle Drive"},
{"id":873,"Pincode":null,"State":null,"Address":"64 Ramsey Way"},
{"id":874,"Pincode":"391833","State":null,"Address":"42 Nevada Avenue"},
{"id":875,"Pincode":null,"State":null,"Address":"49277 Sycamore Way"},
{"id":876,"Pincode":"9016","State":null,"Address":"14201 Iowa Place"},
{"id":877,"Pincode":null,"State":null,"Address":"43 Fairview Avenue"},
{"id":878,"Pincode":null,"State":null,"Address":"05552 Hovde Crossing"},
{"id":879,"Pincode":"257 01","State":null,"Address":"764 Dayton Way"},
{"id":880,"Pincode":null,"State":null,"Address":"78971 Oneill Terrace"},
{"id":881,"Pincode":null,"State":null,"Address":"5558 Jenna Plaza"},
{"id":882,"Pincode":null,"State":null,"Address":"5 Huxley Trail"},
{"id":883,"Pincode":"925-0373","State":null,"Address":"1 Jenifer Center"},
{"id":884,"Pincode":"2710-470","State":"Lisboa","Address":"5515 Killdeer Place"},
{"id":885,"Pincode":null,"State":null,"Address":"4007 Gale Circle"},
{"id":886,"Pincode":"13779 CEDEX","State":"Provence-Alpes-Côte d'Azur","Address":"3 Monterey Trail"},
{"id":887,"Pincode":"42014 CEDEX 2","State":"Rhône-Alpes","Address":"28551 Tennessee Place"},
{"id":888,"Pincode":"81010","State":"Colorado","Address":"73 Miller Street"},
{"id":889,"Pincode":null,"State":null,"Address":"737 Mallory Crossing"},
{"id":890,"Pincode":"34-211","State":null,"Address":"904 Oak Way"},
{"id":891,"Pincode":null,"State":null,"Address":"42 Londonderry Pass"},
{"id":892,"Pincode":null,"State":null,"Address":"24721 Hanover Plaza"},
{"id":893,"Pincode":null,"State":null,"Address":"7414 Michigan Park"},
{"id":894,"Pincode":null,"State":null,"Address":"37 Vernon Drive"},
{"id":895,"Pincode":null,"State":null,"Address":"824 Meadow Ridge Park"},
{"id":896,"Pincode":null,"State":null,"Address":"44 Vermont Way"},
{"id":897,"Pincode":null,"State":null,"Address":"9 Rowland Circle"},
{"id":898,"Pincode":"B0L","State":"Saskatchewan","Address":"873 Dwight Place"},
{"id":899,"Pincode":null,"State":null,"Address":"3103 Badeau Alley"},
{"id":900,"Pincode":"52740","State":"Mexico","Address":"7 Boyd Plaza"},
{"id":901,"Pincode":null,"State":null,"Address":"6723 Sycamore Lane"},
{"id":902,"Pincode":"4575-062","State":"Porto","Address":"329 Southridge Lane"},
{"id":903,"Pincode":"95-036","State":null,"Address":"76504 Anniversary Lane"},
{"id":904,"Pincode":null,"State":null,"Address":"971 South Park"},
{"id":905,"Pincode":"4274","State":null,"Address":"986 Judy Court"},
{"id":906,"Pincode":"B4V","State":"Nova Scotia","Address":"32044 Algoma Trail"},
{"id":907,"Pincode":"16801","State":null,"Address":"314 Vera Way"},
{"id":908,"Pincode":null,"State":null,"Address":"858 Quincy Junction"},
{"id":909,"Pincode":null,"State":null,"Address":"9518 Hoepker Junction"},
{"id":910,"Pincode":"13219 CEDEX 02","State":"Provence-Alpes-Côte d'Azur","Address":"2114 Manitowish Way"},
{"id":911,"Pincode":"143020","State":null,"Address":"27298 Hazelcrest Plaza"},
{"id":912,"Pincode":"78925 CEDEX 9","State":"Île-de-France","Address":"92730 Walton Road"},
{"id":913,"Pincode":"0173","State":"Oslo","Address":"1 Colorado Junction"},
{"id":914,"Pincode":"39080","State":"Cantabria","Address":"40706 Grover Trail"},
{"id":915,"Pincode":null,"State":null,"Address":"3650 Green Junction"},
{"id":916,"Pincode":"9504","State":null,"Address":"09 International Court"},
{"id":917,"Pincode":"8421","State":null,"Address":"028 Eastlawn Park"},
{"id":918,"Pincode":null,"State":null,"Address":"15 Warner Avenue"},
{"id":919,"Pincode":null,"State":null,"Address":"7297 Bunker Hill Junction"},
{"id":920,"Pincode":null,"State":null,"Address":"0853 Green Ridge Center"},
{"id":921,"Pincode":null,"State":null,"Address":"600 Farmco Court"},
{"id":922,"Pincode":null,"State":null,"Address":"07226 High Crossing Avenue"},
{"id":923,"Pincode":"63530","State":null,"Address":"2 Rowland Pass"},
{"id":924,"Pincode":"75690-000","State":null,"Address":"80 Dovetail Center"},
{"id":925,"Pincode":null,"State":null,"Address":"33299 Bay Drive"},
{"id":926,"Pincode":"36160","State":null,"Address":"296 Clarendon Street"},
{"id":927,"Pincode":null,"State":null,"Address":"6629 Washington Circle"},
{"id":928,"Pincode":null,"State":null,"Address":"59286 Spohn Park"},
{"id":929,"Pincode":"743 91","State":"Uppsala","Address":"0635 School Drive"},
{"id":930,"Pincode":null,"State":null,"Address":"514 Hauk Way"},
{"id":931,"Pincode":null,"State":null,"Address":"21 Bay Road"},
{"id":932,"Pincode":null,"State":null,"Address":"59 Melby Drive"},
{"id":933,"Pincode":null,"State":null,"Address":"2767 Scott Junction"},
{"id":934,"Pincode":"4585-254","State":"Porto","Address":"3 Browning Street"},
{"id":935,"Pincode":"658424","State":null,"Address":"867 Lunder Court"},
{"id":936,"Pincode":null,"State":null,"Address":"9 Walton Trail"},
{"id":937,"Pincode":"7010","State":null,"Address":"7 Hansons Lane"},
{"id":938,"Pincode":null,"State":null,"Address":"646 New Castle Circle"},
{"id":939,"Pincode":null,"State":null,"Address":"39 Comanche Court"},
{"id":940,"Pincode":"445143","State":null,"Address":"22 Tennyson Way"},
{"id":941,"Pincode":"549 81","State":null,"Address":"85206 Crownhardt Park"},
{"id":942,"Pincode":null,"State":null,"Address":"58 Hooker Drive"},
{"id":943,"Pincode":"3700-364","State":"Aveiro","Address":"34 Granby Road"},
{"id":944,"Pincode":"20015","State":"Pais Vasco","Address":"82 Hoffman Junction"},
{"id":945,"Pincode":null,"State":null,"Address":"8 Parkside Hill"},
{"id":946,"Pincode":null,"State":null,"Address":"2492 Reinke Point"},
{"id":947,"Pincode":null,"State":null,"Address":"1110 Sage Drive"},
{"id":948,"Pincode":"2390","State":null,"Address":"73 Maple Drive"},
{"id":949,"Pincode":"75648","State":"Melaka","Address":"561 Luster Avenue"},
{"id":950,"Pincode":null,"State":null,"Address":"37 Crownhardt Circle"},
{"id":951,"Pincode":null,"State":null,"Address":"923 Erie Crossing"},
{"id":952,"Pincode":"142817","State":null,"Address":"8 Carpenter Place"},
{"id":953,"Pincode":null,"State":null,"Address":"57684 Badeau Court"},
{"id":954,"Pincode":null,"State":null,"Address":"1243 Maple Wood Pass"},
{"id":955,"Pincode":null,"State":null,"Address":"0 Warner Lane"},
{"id":956,"Pincode":null,"State":null,"Address":"58 Lindbergh Road"},
{"id":957,"Pincode":"33-158","State":null,"Address":"63427 Butternut Way"},
{"id":958,"Pincode":null,"State":null,"Address":"12 Larry Terrace"},
{"id":959,"Pincode":null,"State":null,"Address":"0 Lighthouse Bay Point"},
{"id":960,"Pincode":"665501","State":null,"Address":"0300 Lukken Road"},
{"id":961,"Pincode":null,"State":null,"Address":"85131 Harbort Hill"},
{"id":962,"Pincode":null,"State":null,"Address":"4 Northview Hill"},
{"id":963,"Pincode":"12021","State":null,"Address":"13093 Oakridge Park"},
{"id":964,"Pincode":"465 96","State":"Västra Götaland","Address":"999 Blackbird Road"},
{"id":965,"Pincode":null,"State":null,"Address":"221 Lawn Crossing"},
{"id":966,"Pincode":"08-205","State":null,"Address":"01108 Hintze Parkway"},
{"id":967,"Pincode":"2730-017","State":"Lisboa","Address":"08 Maywood Hill"},
{"id":968,"Pincode":null,"State":null,"Address":"905 Dixon Park"},
{"id":969,"Pincode":null,"State":null,"Address":"33478 Basil Road"},
{"id":970,"Pincode":"4805-505","State":"Braga","Address":"6 Holy Cross Way"},
{"id":971,"Pincode":"762008","State":null,"Address":"7 Shelley Terrace"},
{"id":972,"Pincode":"76110","State":null,"Address":"830 Pleasure Road"},
{"id":973,"Pincode":null,"State":null,"Address":"3 Mesta Alley"},
{"id":974,"Pincode":"35150-000","State":null,"Address":"2 Hoffman Trail"},
{"id":975,"Pincode":null,"State":null,"Address":"25 Oneill Court"},
{"id":976,"Pincode":null,"State":null,"Address":"21 Dennis Crossing"},
{"id":977,"Pincode":null,"State":null,"Address":"1 Sachtjen Street"},
{"id":978,"Pincode":"46857","State":"Indiana","Address":"1 Fordem Junction"},
{"id":979,"Pincode":"747 69","State":null,"Address":"64584 Orin Street"},
{"id":980,"Pincode":"18104 CEDEX","State":"Centre","Address":"9 Ludington Crossing"},
{"id":981,"Pincode":null,"State":null,"Address":"84184 Pepper Wood Hill"},
{"id":982,"Pincode":null,"State":null,"Address":"2 Independence Alley"},
{"id":983,"Pincode":"75312 CEDEX 09","State":"Île-de-France","Address":"5 Clarendon Place"},
{"id":984,"Pincode":null,"State":null,"Address":"547 Basil Crossing"},
{"id":985,"Pincode":"2729","State":null,"Address":"023 Manitowish Pass"},
{"id":986,"Pincode":null,"State":null,"Address":"05 Packers Trail"},
{"id":987,"Pincode":null,"State":null,"Address":"664 Lindbergh Junction"},
{"id":988,"Pincode":null,"State":null,"Address":"33 Hazelcrest Hill"},
{"id":989,"Pincode":null,"State":null,"Address":"290 Welch Plaza"},
{"id":990,"Pincode":null,"State":null,"Address":"56 American Pass"},
{"id":991,"Pincode":null,"State":null,"Address":"568 Carioca Terrace"},
{"id":992,"Pincode":"57820-000","State":null,"Address":"7748 Sutherland Street"},
{"id":993,"Pincode":null,"State":null,"Address":"98779 Carpenter Plaza"},
{"id":994,"Pincode":"692 24","State":"Örebro","Address":"8 Memorial Point"},
{"id":995,"Pincode":null,"State":null,"Address":"8 Anthes Trail"},
{"id":996,"Pincode":"72-400","State":null,"Address":"83 Brickson Park Point"},
{"id":997,"Pincode":null,"State":null,"Address":"89 Alpine Point"},
{"id":998,"Pincode":"33-158","State":null,"Address":"74 Waxwing Plaza"},
{"id":999,"Pincode":null,"State":null,"Address":"3784 5th Hill"},
{"id":1000,"Pincode":null,"State":null,"Address":"8983 Luster Lane"}]